43811,NEXTSAT-1,2018,95.58,100.0,+,97.45,Active,1,LEO,USA,South Korea,Government,Space Science,Falcon,1 43811U 18099BF  25275.09933102  .00007299  00000+0  49515-3 0  9995,2 43811  97.4462 321.6078 0013899 136.8851 223.3468 15.06634030372996,15.0663403,0.0013899,LEO
43812,GLOBAL-2,2018,95.58,55.0,+,97.39,Active,1,LEO,USA,USA,Commercial,Earth Observation,Falcon,1 43812U 18099BG  25275.10782319  .00008434  00000+0  57390-3 0  9992,2 43812  97.3944 317.1691 0005000 338.7816  21.3203 15.06538883373028,15.06538883,0.0005,LEO
43815,FALCONSAT-6,2018,94.47,181.0,+,97.41,Active,1,LEO,USA,USA,Civil/Military,Technology Development,Falcon,1 43815U 18099BK  25275.16905133  .00009912  00000+0  40656-3 0  9991,2 43815  97.4091 348.9838 0018227 131.2376 253.3138 15.24292241374381,15.24292241,0.0018227,LEO
43816,SPACEBEE-7,2018,93.21,2.0,+,97.48,Active,1,LEO,USA,USA,Commercial,Communications,Falcon,1 43816U 18099BL  25275.17171403  .00101255  00000+0  21168-2 0  9997,2 43816  97.4845 348.0585 0004989  72.4562 287.7231 15.45099664374430,15.45099664,0.0004989,LEO
43819,EXCITE,2018,95.69,155.0,+,97.44,Active,1,LEO,USA,USA,Military,Technology Development,Falcon,1 43819U 18099BP  25275.11111759  .00006308  00000+0  44824-3 0  9990,2 43819  97.4369 318.7825 0020118 148.7771 211.4655 15.04869735372910,15.04869735,0.0020118,LEO
43820,SEAHAWK-1,2018,94.92,4.0,+,97.44,Active,1,LEO,USA,USA,Civil,Earth Observation,Falcon,1 43820U 18099BQ  25275.11217796  .00020256  00000+0  10228-2 0  9998,2 43820  97.4379 326.9249 0010702 127.3902 232.8308 15.17075934373323,15.17075934,0.0010702,LEO
43823,GEO-KOMPSAT-2A,2018,1436.09,3507.0,+,0.05,Active,1,GSO,French Guiana,South Korea,Government,Earth Observation,Ariane,1 43823U 18100A   25272.88325387 -.00000341  00000+0  00000+0 0  9999,2 43823   0.0467  24.6017 0001699  99.1133 331.4268  1.00272031 25022,1.00272031,0.0001699,GEO
43824,GSAT-11,2018,1436.09,5854.0,+,0.03,Active,1,GSO,French Guiana,India,Government,Communications,Ariane,1 43824U 18100B   25275.15611667 -.00000077  00000+0  00000+0 0  9998,2 43824   0.0265 263.4420 0005908 217.6071  20.2968  1.00272161 24893,1.00272161,0.0005908,GEO
43831,SAUDISAT 5A,2018,94.47,425.0,+,97.35,Active,1,LEO,PRC,Saudi Arabia,Government,Earth Observation,Long March,1 43831U 18102A   25275.20452160  .00021434  00000+0  87467-3 0  9990,2 43831  97.3461 336.7991 0009568 334.2086  25.8674 15.24395274376328,15.24395274,0.0009568,LEO
43833,SAUDISAT 5B,2018,94.44,425.0,+,97.35,Active,1,LEO,PRC,Saudi Arabia,Government,Earth Observation,Long March,1 43833U 18102C   25275.21246514  .00021664  00000+0  87350-3 0  9993,2 43833  97.3547 339.4182 0010335 336.6886  23.3881 15.24790293376430,15.24790293,0.0010335,LEO
43850,SHIELDS 1,2018,91.69,4.0,+,85.01,Active,1,LEO,New Zealand,USA,Government,Technology Development,Electron,1 43850U 18104B   25275.09339289  .00092363  00000+0  74526-3 0  9997,2 43850  85.0108 315.4437 0006669  77.9993 282.2022 15.70548246379360,15.70548246,0.0006669,LEO
43864,GSAT-7A,2018,1436.1,2250.0,+,0.08,Active,1,GSO,India,India,Military,Communications,GSLV,1 43864U 18105A   25275.15386331  .00000027  00000+0  00000+0 0  9998,2 43864   0.0855  84.5423 0002186 107.2142 297.5828  1.00271955 24866,1.00271955,0.0002186,GEO
43867,COSMOS 2533,2018,1436.14,3000.0,+,0.02,Active,1,GSO,Kazakhstan,Russia/USSR,Commercial/Military,Communications,Proton,1 43867U 18107A   25275.16830501 -.00000038  00000+0  00000+0 0  9990,2 43867   0.0187 125.5659 0000496 115.0788 261.0968  1.00272215 24859,1.00272215,4.96e-05,GEO
43871,HONGYUN 1,2018,106.62,-1.0,+,99.79,Active,1,LEO,PRC,China,Commercial,Technology Development,Long March,1 43871U 18108A   25275.20353538  .00000053  00000+0  15147-3 0  9999,2 43871  99.7910 296.4881 0010799 301.1339  58.8736 13.50752761334255,13.50752761,0.0010799,LEO
43873,NAVSTAR 77 (USA 289),2018,717.94,2300.0,+,55.52,Active,1,MEO,USA,USA,Commercial/Military,Navigation (Global or Regional Positioning),Falcon,1 43873U 18109A   25274.98158087  .00000065  00000+0  00000+0 0  9999,2 43873  55.5233 102.3804 0035763 194.4995 337.5063  2.00574501 49894,2.00574501,0.0035763,MEO
43874,TJS-3,2018,1436.1,-1.0,+,1.87,Active,1,GSO,PRC,China,Government,Technology Development,Long March,1 43874U 18110A   25274.92039485  .00000059  00000+0  00000+0 0  9999,2 43874   1.8723  83.6156 0002006  81.0679 236.5560  1.00271417 24823,1.00271417,0.0002006,GSO
43876,KANOPUS-V 5,2018,94.55,500.0,+,97.37,Active,1,LEO,Russia,Russia/USSR,Government,Earth Observation,Soyuz,1 43876U 18111A   25275.19909690  .00011928  00000+0  50907-3 0  9998,2 43876  97.3668 180.6354 0002009  90.6014 269.5453 15.23049847375515,15.23049847,0.0002009,LEO
43877,KANOPUS-V 6,2018,93.91,500.0,+,97.37,Active,1,LEO,Russia,Russia/USSR,Government,Earth Observation,Soyuz,1 43877U 18111B   25275.21900045  .00019867  00000+0  61781-3 0  9999,2 43877  97.3722 186.4198 0002327  91.7737 268.3772 15.33355949375890,15.33355949,0.0002327,LEO
43879,ISAT,2018,93.81,4.0,+,97.59,Active,1,LEO,Russia,Germany,Commercial,Communications,Soyuz,1 43879U 18111D   25274.73075117  .00055410  00000+0  16128-2 0  9998,2 43879  97.5864 191.9517 0009809 137.8814 222.3184 15.35181968371171,15.35181968,0.0009809,LEO
43880,UWE-4,2018,94.13,2.0,+,97.58,Active,1,LEO,Russia,Germany,Civil,Educational/Technology Development,Soyuz,1 43880U 18111E   25275.18011235  .00044607  00000+0  15348-2 0  9990,2 43880  97.5812 189.9999 0011917 153.9284 206.2558 15.29859872371120,15.29859872,0.0011917,LEO
43881,D-STAR ONE (SPARROW),2018,93.71,4.0,+,97.6,Active,1,LEO,Russia,Germany,Commercial,Technology Development,Soyuz,1 43881U 18111F   25273.76355215  .00057646  00000+0  15997-2 0  9999,2 43881  97.6035 194.3152 0006493 163.9201 196.2250 15.36693070371135,15.3669307,0.0006493,LEO
43890,GRUS-1A,2018,96.12,100.0,+,97.48,Active,1,LEO,Russia,Japan,Commercial,Earth Observation,Soyuz,1 43890U 18111Q   25275.18607822  .00006447  00000+0  54775-3 0  9992,2 43890  97.4846 148.1080 0007539 312.7212  47.3376 14.98180223369060,14.98180223,0.0007539,LEO
43909,YUNHAI-2 01A,2018,100.78,-1.0,+,50.01,Active,1,LEO,PRC,China,Government,Earth Observation,Long March,1 43909U 18112A   25275.18783817  .00000731  00000+0  35151-3 0  9990,2 43909  50.0100  59.2706 0000193  97.7437 262.3500 14.28859094354192,14.28859094,1.93e-05,LEO
43910,YUNHAI-2 01B,2018,100.78,-1.0,+,50.01,Active,1,LEO,PRC,China,Government,Earth Observation,Long March,1 43910U 18112B   25275.13705616  .00000390  00000+0  21709-3 0  9993,2 43910  50.0097 123.0922 0005008  39.0641 321.0635 14.28849626353343,14.28849626,0.0005008,LEO
43911,YUNHAI-2 01C,2018,100.78,-1.0,+,50.01,Active,1,LEO,PRC,China,Government,Earth Observation,Long March,1 43911U 18112C   25275.16113118  .00000431  00000+0  23327-3 0  9991,2 43911  50.0146   2.5313 0000582 294.5970  65.4885 14.28833048354897,14.28833048,5.82e-05,LEO
43912,YUNHAI-2 01D,2018,100.78,-1.0,+,50.01,Active,1,LEO,PRC,China,Government,Earth Observation,Long March,1 43912U 18112D   25275.14105259  .00000373  00000+0  21031-3 0  9992,2 43912  50.0106 302.7001 0015535 159.7680 200.3854 14.28867228350683,14.28867228,0.0015535,LEO
43913,YUNHAI-2 01E,2018,100.78,-1.0,+,50.01,Active,1,LEO,PRC,China,Government,Earth Observation,Long March,1 43913U 18112E   25275.23452978  .00000642  00000+0  31645-3 0  9997,2 43913  50.0076 181.6517 0004906 178.9803 181.1123 14.28849460352276,14.2884946,0.0004906,LEO
43914,HONGYAN 1 (CHONGQING),2018,107.16,-1.0,+,50.01,Active,1,LEO,PRC,China,Government,Communications,Long March,1 43914U 18112F   25274.80861561 -.00000083  00000+0  78853-4 0  9995,2 43914  50.0055 107.3534 0006569 189.1322 170.9437 13.43804337331793,13.43804337,0.0006569,LEO
43915,YUNHAI-2 01F,2018,100.78,-1.0,+,50.01,Active,1,LEO,PRC,China,Government,Earth Observation,Long March,1 43915U 18112G   25275.18735661  .00000737  00000+0  35346-3 0  9993,2 43915  50.0105 242.6991 0006866 142.3639 217.7758 14.28866598351410,14.28866598,0.0006866,LEO
43920,ZHONGXING-2D,2019,1436.08,5200.0,+,0.04,Active,1,GSO,PRC,China,Commercial/Government,Communications,Long March,1 43920U 19001A   25274.95309387 -.00000336  00000+0  00000+0 0  9994,2 43920   0.0437  11.5358 0002269 234.8646 237.6686  1.00273093 51491,1.00273093,0.0002269,GEO
