OBJECT_NAME,OBJECT_ID,EPOCH,MEAN_MOTION,ECCENTRICITY,INCLINATION,RA_OF_ASC_NODE,ARG_OF_PERICENTER,MEAN_ANOMALY,EPHEMERIS_TYPE,CLASSIFICATION_TYPE,NORAD_CAT_ID,ELEMENT_SET_NO,REV_AT_EPOCH,BSTAR,MEAN_MOTION_DOT,MEAN_MOTION_DDOT
NEXTSAT-1,2018-099BF,2025-10-02T02:23:02.200128,15.0663403,0.0013899,97.4462,321.6078,136.8851,223.3468,0,U,43811,999,37299,0.00049515,7.299e-05,0.0
GLOBAL-2,2018-099BG,2025-10-02T02:35:15.923616,15.06538883,0.0005,97.3944,317.1691,338.7816,21.3203,0,U,43812,999,37302,0.0005739,8.434e-05,0.0
FALCONSAT-6,2018-099BK,2025-10-02T04:03:26.034912,15.24292241,0.0018227,97.4091,348.9838,131.2376,253.3138,0,U,43815,999,37438,0.00040656,9.912e-05,0.0
SPACEBEE-7,2018-099BL,2025-10-02T04:07:16.092192,15.45099664,0.0004989,97.4845,348.0585,72.4562,287.7231,0,U,43816,999,37443,0.0021168,0.00101255,0.0
EXCITE,2018-099BP,2025-10-02T02:40:00.559776,15.04869735,0.0020118,97.4369,318.7825,148.7771,211.4655,0,U,43819,999,37291,0.00044824,6.308e-05,0.0
SEAHAWK-1,2018-099BQ,2025-10-02T02:41:32.175744,15.17075934,0.0010702,97.4379,326.9249,127.3902,232.8308,0,U,43820,999,37332,0.0010228,0.00020256,0.0
GEO-KOMPSAT-2A,2018-100A,2025-09-29T21:11:53.134368,1.00272031,0.0001699,0.0467,24.6017,99.1133,331.4268,0,U,43823,999,2502,0.0,-3.41e-06,0.0
GSAT-11,2018-100B,2025-10-02T03:44:48.480288,1.00272161,0.0005908,0.0265,263.442,217.6071,20.2968,0,U,43824,999,2489,0.0,-7.7e-07,0.0
SAUDISAT 5A,2018-102A,2025-10-02T04:54:30.666240,15.24395274,0.0009568,97.3461,336.7991,334.2086,25.8674,0,U,43831,999,37632,0.00087467,0.00021434,0.0
SAUDISAT 5B,2018-102C,2025-10-02T05:05:56.988096,15.24790293,0.0010335,97.3547,339.4182,336.6886,23.3881,0,U,43833,999,37643,0.0008735,0.00021664,0.0
SHIELDS 1,2018-104B,2025-10-02T02:14:29.145696,15.70548246,0.0006669,85.0108,315.4437,77.9993,282.2022,0,U,43850,999,37936,0.00074526,0.00092363,0.0
GSAT-7A,2018-105A,2025-10-02T03:41:33.789984,1.00271955,0.0002186,0.0855,84.5423,107.2142,297.5828,0,U,43864,999,2486,0.0,2.7e-07,0.0
COSMOS 2533,2018-107A,2025-10-02T04:02:21.552864,1.00272215,4.96e-05,0.0187,125.5659,115.0788,261.0968,0,U,43867,999,2485,0.0,-3.8e-07,0.0
HONGYUN 1,2018-108A,2025-10-02T04:53:05.456832,13.50752761,0.0010799,99.791,296.4881,301.1339,58.8736,0,U,43871,999,33425,0.00015147,5.3e-07,0.0
NAVSTAR 77 (USA 289),2018-109A,2025-10-01T23:33:28.587168,2.00574501,0.0035763,55.5233,102.3804,194.4995,337.5063,0,U,43873,999,4989,0.0,6.5e-07,0.0
TJS-3,2018-110A,2025-10-01T22:05:22.115040,1.00271417,0.0002006,1.8723,83.6156,81.0679,236.556,0,U,43874,999,2482,0.0,5.9e-07,0.0
KANOPUS-V 5,2018-111A,2025-10-02T04:46:41.972160,15.23049847,0.0002009,97.3668,180.6354,90.6014,269.5453,0,U,43876,999,37551,0.00050907,0.00011928,0.0
KANOPUS-V 6,2018-111B,2025-10-02T05:15:21.638880,15.33355949,0.0002327,97.3722,186.4198,91.7737,268.3772,0,U,43877,999,37589,0.00061781,0.00019867,0.0
ISAT,2018-111D,2025-10-01T17:32:16.901088,15.35181968,0.00098091,97.5864,191.9517,137.8814,222.3184,0,U,43879,999,37117,0.0016127953,0.0005541,0.0
UWE-4,2018-111E,2025-10-02T04:19:21.707040,15.29859872,0.0011917,97.5812,189.9999,153.9284,206.2558,0,U,43880,999,37112,0.0015348,0.00044607,0.0
D-STAR ONE (SPARROW),2018-111F,2025-09-30T18:19:30.905760,15.3669307,0.00064935,97.6035,194.3152,163.9201,196.225,0,U,43881,999,37113,0.0015996835,0.00057646,0.0
GRUS-1A,2018-111Q,2025-10-02T04:27:57.158208,14.98180223,0.0007539,97.4846,148.108,312.7212,47.3376,0,U,43890,999,36906,0.00054775,6.447e-05,0.0
YUNHAI-2 01A,2018-112A,2025-10-02T04:30:29.217888,14.28859094,1.93e-05,50.01,59.2706,97.7437,262.35,0,U,43909,999,35419,0.00035151,7.31e-06,0.0
YUNHAI-2 01B,2018-112B,2025-10-02T03:17:21.652224,14.28849626,0.0005008,50.0097,123.0922,39.0641,321.0635,0,U,43910,999,35334,0.00021709,3.9e-06,0.0
YUNHAI-2 01C,2018-112C,2025-10-02T03:52:01.733952,14.28833048,5.82e-05,50.0146,2.5313,294.597,65.4885,0,U,43911,999,35489,0.00023327,4.31e-06,0.0
YUNHAI-2 01D,2018-112D,2025-10-02T03:23:06.943776,14.28867228,0.0015535,50.0106,302.7001,159.768,200.3854,0,U,43912,999,35068,0.00021031,3.73e-06,0.0
YUNHAI-2 01E,2018-112E,2025-10-02T05:37:43.372992,14.2884946,0.0004906,50.0076,181.6517,178.9803,181.1123,0,U,43913,999,35227,0.00031645,6.42e-06,0.0
HONGYAN 1 (CHONGQING),2018-112F,2025-10-01T19:24:24.388704,13.43804337,0.00065697,50.0055,107.3534,189.1322,170.9437,0,U,43914,999,33179,7.8852668e-05,-8.3e-07,0.0
YUNHAI-2 01F,2018-112G,2025-10-02T04:29:47.611104,14.28866598,0.0006866,50.0105,242.6991,142.3639,217.7758,0,U,43915,999,35141,0.00035346,7.37e-06,0.0
ZHONGXING-2D,2019-001A,2025-10-01T22:52:27.310368,1.00273093,0.0002269,0.0437,11.5358,234.8646,237.6686,0,U,43920,999,5149,0.0,-3.36e-06,0.0
